{"spkid": "20872992", "covariance": {"epoch": "2457833.5", "labels": ["e", "q", "tp", "node", "peri", "i"], "data": [["3.954984057708435E-16", "-9.82343787341647E-16", "-8.015397509977528E-14", "-6.600187626212076E-14", "9.652760525950673E-15", "-3.337820668882188E-14"], ["-9.82343787341647E-16", "2.443854054597358E-15", "2.16614593429773E-13", "1.834730243488147E-13", "-3.413149401712277E-14", "8.809499280480301E-14"], ["-8.015397509977528E-14", "2.16614593429773E-13", "3.823975922427839E-10", "2.933146204493195E-10", "-3.647904900226162E-11", "9.992768142464054E-11"], ["-6.600187626212076E-14", "1.834730243488147E-13", "2.933146204493195E-10", "5.379220452970132E-10", "-3.339157264580452E-10", "1.520921184533389E-10"], ["9.652760525950673E-15", "-3.413149401712277E-14", "-3.647904900226162E-11", "-3.339157264580452E-10", "3.212687508893587E-10", "-7.927901317197393E-11"], ["-3.337820668882188E-14", "8.809499280480301E-14", "9.992768142464054E-11", "1.520921184533389E-10", "-7.927901317197393E-11", "7.096592295384298E-11"]], "elements": [{"label": "e", "name": "e", "sigma": 1.98871417194841e-08, "units": null, "value": ".6370806444953755", "title": "eccentricity"}, {"sigma": 4.94353522754451e-08, "name": "q", "units": "au", "value": ".9170490790972594", "title": "perihelion distance", "label": "q"}, {"label": "tp", "name": "tp", "sigma": 1.95549889348673e-05, "units": "TDB", "title": "time of perihelion passage", "value": "2458466.847882983263"}, {"sigma": 2.31931465156631e-05, "name": "om", "units": "deg", "title": "longitude of the ascending node", "value": "118.2419119090504", "label": "node"}, {"label": "peri", "units": "deg", "title": "argument of perihelion", "value": "328.7622001917644", "sigma": 1.79239714039428e-05, "name": "w"}, {"label": "i", "units": "deg", "value": "17.76132918352963", "title": "inclination", "sigma": 8.42412742981984e-06, "name": "i"}]}, "elements": [{"label": "e", "units": null, "title": "eccentricity", "value": ".6344556417418575", "sigma": "2.0594E-8", "name": "e"}, {"label": "a", "units": "au", "value": "2.53054306715941", "title": "semi-major axis", "sigma": "4.9397E-9", "name": "a"}, {"value": ".9250257415293779", "title": "perihelion distance", "units": "au", "sigma": "5.098E-8", "name": "q", "label": "q"}, {"label": "i", "units": "deg", "value": "17.75813489940963", "title": "inclination; angle with respect to x-y ecliptic plane", "name": "i", "sigma": "8.4337E-6"}, {"label": "node", "name": "om", "sigma": "2.3137E-5", "units": "deg", "value": "118.1508036382575", "title": "longitude of the ascending node"}, {"label": "peri", "value": "328.7987690225232", "title": "argument of perihelion", "units": "deg", "sigma": "1.7892E-5", "name": "w"}, {"label": "M", "title": "mean anomaly", "value": "309.434582917833", "units": "deg", "name": "ma", "sigma": "6.0146E-6"}, {"title": "time of perihelion passage", "value": "2461407.023805676612", "units": "TDB", "name": "tp", "sigma": "2.4767E-5", "label": "tp"}, {"label": "period", "name": "per", "sigma": "4.3052E-6", "title": "sidereal orbital period", "value": "1470.344245806704", "units": "d"}, {"label": "n", "value": ".2448406222057788", "title": "mean motion", "units": "deg/d", "sigma": "7.1691E-10", "name": "n"}, {"label": "Q", "units": "au", "value": "4.136060392789441", "title": "aphelion distance", "name": "ad", "sigma": "8.0737E-9"}], "epoch": "2461200.5"}